NORAD_CAT_ID,OBJECT_NAME,OBJECT_TYPE,EPOCH,MEAN_MOTION,ECCENTRICITY,INCLINATION,RA_OF_ASC_NODE,ARG_OF_PERICENTER,MEAN_ANOMALY,BSTAR,MEAN_MOTION_DOT,MEAN_MOTION_DDOT,TLE_LINE0,TLE_LINE1,TLE_LINE2,SEMIMAJOR_AXIS,PERIOD,APOGEE,PERIGEE,DECAYED
56474.0,STARLINK-5524,PAYLOAD,2023-12-21 09:59:32,14.98333529,0.0002421,70.001,5.098,252.906,107.1834,0.00011556,1.286e-05,0.0,0 STARLINK-5524,1 56474U 23064AC  23355.41634336  .00001286  00000-0  11556-3 0  9997,2 56474  70.0010   5.0980 0002421 252.9060 107.1834 14.98333529 34515,6950.182,96.107,573.73,570.364,0.0
56474.0,STARLINK-5524,PAYLOAD,2023-12-22 03:37:01,14.98326486,0.0002639,70.0011,3.2472,254.0608,106.0261,-3.9214e-06,-1.4e-06,0.0,0 STARLINK-5524,1 56474U 23064AC  23356.15071090 -.00000140  00000-0 -39214-5 0  9994,2 56474  70.0011   3.2472 0002639 254.0608 106.0261 14.98326486 34981,6950.204,96.107,573.903,570.235,0.0
56474.0,STARLINK-5524,PAYLOAD,2023-12-22 10:01:33,14.98326231,0.0002654,70.0009,2.5733,258.0607,102.0254,2.5255e-07,-9e-07,0.0,0 STARLINK-5524,1 56474U 23064AC  23356.41775154 -.00000090  00000-0  25255-6 0  9999,2 56474  70.0009   2.5733 0002654 258.0607 102.0254 14.98326231 34661,6950.205,96.107,573.914,570.225,0.0
56474.0,STARLINK-5524,PAYLOAD,2023-12-23 03:39:02,14.9832849,0.0002763,70.0009,0.7217,263.2417,96.8427,-3.8184e-05,-5.48e-06,0.0,0 STARLINK-5524,1 56474U 23064AC  23357.15211130 -.00000548  00000-0 -38184-4 0  9992,2 56474  70.0009   0.7217 0002763 263.2417  96.8427 14.98328490 35130,6950.198,96.107,573.983,570.142,0.0
56474.0,STARLINK-5524,PAYLOAD,2023-12-23 10:03:34,14.98326286,0.0002644,70.001,0.0472,271.2347,88.8509,6.6726e-05,7.03e-06,0.0,0 STARLINK-5524,1 56474U 23064AC  23357.41915067  .00000703  00000-0  66726-4 0  9995,2 56474  70.0010   0.0472 0002644 271.2347  88.8509 14.98326286 34814,6950.204,96.107,573.907,570.232,0.0
56474.0,STARLINK-5524,PAYLOAD,2023-12-24 03:41:03,14.98327051,0.0002658,70.001,358.1961,264.1107,95.9749,7.4055e-05,7.91e-06,0.0,0 STARLINK-5524,1 56474U 23064AC  23358.15350942  .00000791  00000-0  74055-4 0  9993,2 56474  70.0010 358.1961 0002658 264.1107  95.9749 14.98327051 35282,6950.202,96.107,573.914,570.22,0.0
56474.0,STARLINK-5524,PAYLOAD,2023-12-24 10:05:35,14.9833004,0.0002557,70.0011,357.5222,265.4246,94.6621,9.597e-05,1.052e-05,0.0,0 STARLINK-5524,1 56474U 23064AC  23358.42054690  .00001052  00000-0  95970-4 0  9994,2 56474  70.0011 357.5222 0002557 265.4246  94.6621 14.98330040 34963,6950.193,96.107,573.835,570.281,0.0
56474.0,STARLINK-5524,PAYLOAD,2023-12-25 03:43:04,14.98329636,0.0002561,70.0009,355.6698,262.1778,97.909,3.8421e-05,3.66e-06,0.0,0 STARLINK-5524,1 56474U 23064AC  23359.15490847  .00000366  00000-0  38421-4 0  9998,2 56474  70.0009 355.6698 0002561 262.1778  97.9090 14.98329636 35433,6950.194,96.107,573.839,570.279,0.0
56474.0,STARLINK-5524,PAYLOAD,2023-12-25 10:07:36,14.98333072,0.0002495,70.001,354.9971,252.495,107.5937,3.7184e-05,3.51e-06,0.0,0 STARLINK-5524,1 56474U 23064AC  23359.42194561  .00000351  00000-0  37184-4 0  9991,2 56474  70.0010 354.9971 0002495 252.4950 107.5937 14.98333072 35113,6950.183,96.107,573.782,570.314,0.0
56474.0,STARLINK-5524,PAYLOAD,2023-12-26 03:45:05,14.98329616,0.0002553,70.0011,353.1459,262.5664,97.5205,-2.3723e-05,-3.76e-06,0.0,0 STARLINK-5524,1 56474U 23064AC  23360.15630887 -.00000376  00000-0 -23723-4 0  9992,2 56474  70.0011 353.1459 0002553 262.5664  97.5205 14.98329616 35581,6950.194,96.107,573.833,570.285,0.0
56474.0,STARLINK-5524,PAYLOAD,2023-12-26 10:09:37,14.98328182,0.0002367,70.0012,352.4717,256.9846,103.1049,4.8429e-06,-3.5e-07,0.0,0 STARLINK-5524,1 56474U 23064AC  23360.42334966 -.00000035  00000-0  48429-5 0  9993,2 56474  70.0012 352.4717 0002367 256.9846 103.1049 14.98328182 35265,6950.199,96.107,573.709,570.418,0.0
56474.0,STARLINK-5524,PAYLOAD,2023-12-27 03:47:05,14.98357395,0.0002367,70.0005,350.6201,259.4942,100.595,-0.00045202,-5.486e-05,0.0,0 STARLINK-5524,1 56474U 23064AC  23361.15770380 -.00005486  00000-0 -45202-3 0  9998,2 56474  70.0005 350.6201 0002367 259.4942 100.5950 14.98357395 35732,6950.108,96.105,573.618,570.328,0.0
56474.0,STARLINK-5524,PAYLOAD,2023-12-27 08:35:29,14.98332272,0.0002634,70.0009,350.1161,257.2694,102.8171,3.7929e-05,3.6e-06,0.0,0 STARLINK-5524,1 56474U 23064AC  23361.35798468  .00000360  00000-0  37929-4 0  9999,2 56474  70.0009 350.1161 0002634 257.2694 102.8171 14.98332272 35763,6950.186,96.107,573.882,570.22,0.0
56474.0,STARLINK-5524,PAYLOAD,2023-12-28 08:37:31,14.9832953,0.00028,70.0007,347.5907,271.0559,89.0279,3.045e-05,2.7e-06,0.0,0 STARLINK-5524,1 56474U 23064AC  23362.35938688  .00000270  00000-0  30450-4 0  9992,2 56474  70.0007 347.5907 0002800 271.0559  89.0279 14.98329530 35913,6950.194,96.107,574.005,570.113,0.0
56474.0,STARLINK-5524,PAYLOAD,2023-12-29 08:39:32,14.98329842,0.0002896,70.0007,345.0661,269.3058,90.7769,1.8479e-05,1.28e-06,0.0,0 STARLINK-5524,1 56474U 23064AC  23363.36078722  .00000128  00000-0  18479-4 0  9997,2 56474  70.0007 345.0661 0002896 269.3058  90.7769 14.98329842 36068,6950.193,96.107,574.071,570.046,0.0
56474.0,STARLINK-5524,PAYLOAD,2023-12-30 08:41:32,14.98330582,0.0002495,70.0014,342.5417,265.9227,94.1647,6.6743e-05,7.04e-06,0.0,0 STARLINK-5524,1 56474U 23064AC  23364.36218550  .00000704  00000-0  66743-4 0  9990,2 56474  70.0014 342.5417 0002495 265.9227  94.1647 14.98330582 36215,6950.191,96.107,573.79,570.322,0.0
56474.0,STARLINK-5524,PAYLOAD,2023-12-31 08:43:34,14.98316865,0.0002988,70.0013,340.0159,280.1029,79.9793,0.00019891,2.28e-05,0.0,0 STARLINK-5524,1 56474U 23064AC  23365.36359182  .00002280  00000-0  19891-3 0  9990,2 56474  70.0013 340.0159 0002988 280.1029  79.9793 14.98316865 36363,6950.234,96.108,574.175,570.022,0.0
56474.0,STARLINK-5524,PAYLOAD,2023-12-31 21:32:38,14.98330728,0.0002658,70.0011,338.6695,268.0211,92.0644,2.0034e-05,1.46e-06,0.0,0 STARLINK-5524,1 56474U 23064AC  23365.89766602  .00000146  00000-0  20034-4 0  9998,2 56474  70.0011 338.6695 0002658 268.0211  92.0644 14.98330728 36085,6950.191,96.107,573.903,570.208,0.0
56474.0,STARLINK-5524,PAYLOAD,2024-01-01 03:57:10,14.98335227,0.0002186,70.0009,337.9962,257.7721,102.3193,-7.0005e-05,-9.28e-06,0.0,0 STARLINK-5524,1 56474U 23064AC  24001.16470572 -.00000928  00000-0 -70005-4 0  9997,2 56474  70.0009 337.9962 0002186 257.7721 102.3193 14.98335227 36485,6950.177,96.107,573.561,570.522,0.0
56474.0,STARLINK-5524,PAYLOAD,2024-01-01 08:45:34,14.98333228,0.0002415,70.0009,337.4913,257.4234,102.6655,3.5121e-05,3.26e-06,0.0,0 STARLINK-5524,1 56474U 23064AC  24001.36498345  .00000326  00000-0  35121-4 0  9997,2 56474  70.0009 337.4913 0002415 257.4234 102.6655 14.98333228 36156,6950.183,96.107,573.726,570.369,0.0
56474.0,STARLINK-5524,PAYLOAD,2024-01-01 21:34:39,14.98329257,0.0002724,70.0012,336.1449,266.9612,93.1235,6.609e-05,6.96e-06,0.0,0 STARLINK-5524,1 56474U 23064AC  24001.89906374  .00000696  00000-0  66090-4 0  9990,2 56474  70.0012 336.1449 0002724 266.9612  93.1235 14.98329257 36232,6950.195,96.107,573.953,570.167,0.0
56474.0,STARLINK-5524,PAYLOAD,2024-01-02 03:59:11,14.98329613,0.0002605,70.0012,335.4716,262.0809,98.0055,5.5757e-05,5.72e-06,0.0,0 STARLINK-5524,1 56474U 23064AC  24002.16610367  .00000572  00000-0  55757-4 0  9996,2 56474  70.0012 335.4716 0002605 262.0809  98.0055 14.98329613 36638,6950.194,96.107,573.87,570.249,0.0
56474.0,STARLINK-5524,PAYLOAD,2024-01-02 07:11:27,14.98332306,0.0002723,70.0011,335.1349,267.4946,92.5902,6.404e-05,6.71e-06,0.0,0 STARLINK-5524,1 56474U 23064AC  24002.29962176  .00000671  00000-0  64040-4 0  9993,2 56474  70.0011 335.1349 0002723 267.4946  92.5902 14.98332306 36293,6950.186,96.107,573.943,570.158,0.0
56474.0,STARLINK-5524,PAYLOAD,2024-01-03 04:01:12,14.9832867,0.0002659,70.0016,332.9474,261.6846,98.4012,5.2968e-06,-3e-07,0.0,0 STARLINK-5524,1 56474U 23064AC  24003.16750434 -.00000030  00000-0  52968-5 0  9999,2 56474  70.0016 332.9474 0002659 261.6846  98.4012 14.98328670 36785,6950.197,96.107,573.91,570.214,0.0
56474.0,STARLINK-5524,PAYLOAD,2024-01-03 07:13:28,14.98331505,0.0002667,70.0013,332.61,275.3229,84.7626,1.8673e-05,1.3e-06,0.0,0 STARLINK-5524,1 56474U 23064AC  24003.30102346  .00000130  00000-0  18673-4 0  9992,2 56474  70.0013 332.6100 0002667 275.3229  84.7626 14.98331505 36444,6950.188,96.107,573.907,570.2,0.0
56474.0,STARLINK-5524,PAYLOAD,2024-01-04 04:03:13,14.98328998,0.0002961,70.0005,330.421,270.5064,89.5756,-1.6355e-05,-2.88e-06,0.0,0 STARLINK-5524,1 56474U 23064AC  24004.16890472 -.00000288  00000-0 -16355-4 0  9992,2 56474  70.0005 330.4210 0002961 270.5064  89.5756 14.98328998 36937,6950.196,96.107,574.119,570.003,0.0
56474.0,STARLINK-5524,PAYLOAD,2024-01-04 07:15:29,14.98331715,0.0002888,70.0007,330.0846,270.4856,89.5972,-6.8876e-06,-1.75e-06,0.0,0 STARLINK-5524,1 56474U 23064AC  24004.30242265 -.00000175  00000-0 -68876-5 0  9990,2 56474  70.0007 330.0846 0002888 270.4856  89.5972 14.98331715 36599,6950.188,96.107,574.06,570.045,0.0
56474.0,STARLINK-5524,PAYLOAD,2024-01-04 21:40:41,14.98328793,0.0002863,70.0006,328.5695,265.3856,94.6976,2.7922e-05,2.4e-06,0.0,0 STARLINK-5524,1 56474U 23064AC  24004.90326290  .00000240  00000-0  27922-4 0  9994,2 56474  70.0006 328.5695 0002863 265.3856  94.6976 14.98328793 36681,6950.197,96.107,574.051,570.072,0.0
56474.0,STARLINK-5524,PAYLOAD,2024-01-05 04:05:13,14.98332154,0.0002881,70.0008,327.8968,263.9949,96.0881,3.8627e-05,3.68e-06,0.0,0 STARLINK-5524,1 56474U 23064AC  24005.17030031  .00000368  00000-0  38627-4 0  9994,2 56474  70.0008 327.8968 0002881 263.9949  96.0881 14.98332154 37087,6950.186,96.107,574.054,570.049,0.0
56474.0,STARLINK-5524,PAYLOAD,2024-01-05 07:17:29,14.98334772,0.0002876,70.0008,327.5602,266.8789,93.2041,6.8718e-05,7.27e-06,0.0,0 STARLINK-5524,1 56474U 23064AC  24005.30381777  .00000727  00000-0  68718-4 0  9998,2 56474  70.0008 327.5602 0002876 266.8789  93.2041 14.98334772 36744,6950.178,96.107,574.042,570.044,0.0
